{
  "type": "FeatureCollection",
  "features": [
    {
      "type": "Feature",
      "properties": {
        "norad_id": 46277,
        "name": "NEMO-HD",
        "group": "resource",
        "lat": 62.10721337833834,
        "lon": 37.07546032684081,
        "alt_km": 437.77320699991105,
        "timestamp": "2025-12-17T21:39:45.366412+00:00",
        "meta_object_name": "NEMO-HD",
        "meta_object_id": "2020-061F",
        "meta_epoch": "2025-12-17T15:09:14.874624",
        "meta_mean_motion": 15.40429089,
        "meta_eccentricity": 0.00015671,
        "meta_inclination": 97.2212,
        "meta_ra_of_asc_node": 50.6675,
        "meta_arg_of_pericenter": 52.58,
        "meta_mean_anomaly": 307.5589,
        "meta_ephemeris_type": 0,
        "meta_classification_type": "U",
        "meta_norad_cat_id": 46277,
        "meta_element_set_no": 999,
        "meta_rev_at_epoch": 29399,
        "meta_bstar": 0.00021945665,
        "meta_mean_motion_dot": 8.798e-05,
        "meta_mean_motion_ddot": 0,
        "tle_line1": "1 46277U 20061F   25351.63142216  .00008798  00000+0  21946-3 0  9992",
        "tle_line2": "2 46277  97.2212  50.6675 0001567  52.5800 307.5589 15.40429089293990"
      },
      "geometry": {
        "type": "Point",
        "coordinates": [
          37.07546032684081,
          62.10721337833834
        ]
      }
    },
    {
      "type": "Feature",
      "properties": {
        "norad_id": 46984,
        "name": "SENTINEL-6A",
        "group": "resource",
        "lat": 31.954303942213926,
        "lon": -44.518227355156995,
        "alt_km": 1338.2585258251875,
        "timestamp": "2025-12-17T21:39:45.366421+00:00",
        "meta_object_name": "SENTINEL-6A",
        "meta_object_id": "2020-086A",
        "meta_epoch": "2025-12-17T15:17:18.807936",
        "meta_mean_motion": 12.80930803,
        "meta_eccentricity": 0.00077115,
        "meta_inclination": 66.0391,
        "meta_ra_of_asc_node": 152.136,
        "meta_arg_of_pericenter": 269.2447,
        "meta_mean_anomaly": 90.7685,
        "meta_ephemeris_type": 0,
        "meta_classification_type": "U",
        "meta_norad_cat_id": 46984,
        "meta_element_set_no": 999,
        "meta_rev_at_epoch": 23707,
        "meta_bstar": 6.035652e-05,
        "meta_mean_motion_dot": -4.7e-07,
        "meta_mean_motion_ddot": 0,
        "tle_line1": "1 46984U 20086A   25351.63702324 -.00000047  00000+0  60357-4 0  9996",
        "tle_line2": "2 46984  66.0391 152.1360 0007711 269.2447  90.7685 12.80930803237074"
      },
      "geometry": {
        "type": "Point",
        "coordinates": [
          -44.518227355156995,
          31.954303942213926
        ]
      }
    },
    {
      "type": "Feature",
      "properties": {
        "norad_id": 48079,
        "name": "GAOFEN-12 02",
        "group": "resource",
        "lat": 42.505719603947085,
        "lon": 173.27591355469733,
        "alt_km": 621.969751858086,
        "timestamp": "2025-12-17T21:39:45.366430+00:00",
        "meta_object_name": "GAOFEN-12 02",
        "meta_object_id": "2021-026A",
        "meta_epoch": "2025-12-17T14:33:33.433344",
        "meta_mean_motion": 14.80681077,
        "meta_eccentricity": 0.00036047,
        "meta_inclination": 97.9852,
        "meta_ra_of_asc_node": 345.5896,
        "meta_arg_of_pericenter": 91.2968,
        "meta_mean_anomaly": 268.8657,
        "meta_ephemeris_type": 0,
        "meta_classification_type": "U",
        "meta_norad_cat_id": 48079,
        "meta_element_set_no": 999,
        "meta_rev_at_epoch": 25489,
        "meta_bstar": 6.4094875e-05,
        "meta_mean_motion_dot": 4.4e-06,
        "meta_mean_motion_ddot": 0,
        "tle_line1": "1 48079U 21026A   25351.60663696  .00000440  00000+0  64095-4 0  9992",
        "tle_line2": "2 48079  97.9852 345.5896 0003604  91.2968 268.8657 14.80681077254890"
      },
      "geometry": {
        "type": "Point",
        "coordinates": [
          173.27591355469733,
          42.505719603947085
        ]
      }
    },
    {
      "type": "Feature",
      "properties": {
        "norad_id": 48268,
        "name": "PLEIADES NEO 3",
        "group": "resource",
        "lat": -41.872209959965794,
        "lon": -122.87548739982608,
        "alt_km": 631.2900925412041,
        "timestamp": "2025-12-17T21:39:45.366445+00:00",
        "meta_object_name": "PLEIADES NEO 3",
        "meta_object_id": "2021-034A",
        "meta_epoch": "2025-12-17T15:48:00.875808",
        "meta_mean_motion": 14.81675299,
        "meta_eccentricity": 0.00013421,
        "meta_inclination": 97.8948,
        "meta_ra_of_asc_node": 64.0289,
        "meta_arg_of_pericenter": 90.9471,
        "meta_mean_anomaly": 269.1895,
        "meta_ephemeris_type": 0,
        "meta_classification_type": "U",
        "meta_norad_cat_id": 48268,
        "meta_element_set_no": 999,
        "meta_rev_at_epoch": 25077,
        "meta_bstar": 0.00013675396,
        "meta_mean_motion_dot": 1.024e-05,
        "meta_mean_motion_ddot": 0,
        "tle_line1": "1 48268U 21034A   25351.65834347  .00001024  00000+0  13675-3 0  9995",
        "tle_line2": "2 48268  97.8948  64.0289 0001342  90.9471 269.1895 14.81675299250777"
      },
      "geometry": {
        "type": "Point",
        "coordinates": [
          -122.87548739982608,
          -41.872209959965794
        ]
      }
    },
    {
      "type": "Feature",
      "properties": {
        "norad_id": 49070,
        "name": "PLEIADES NEO 4",
        "group": "resource",
        "lat": 41.72986342675019,
        "lon": 57.156265479709944,
        "alt_km": 620.2013820090406,
        "timestamp": "2025-12-17T21:39:45.366454+00:00",
        "meta_object_name": "PLEIADES NEO 4",
        "meta_object_id": "2021-073E",
        "meta_epoch": "2025-12-17T16:36:37.305216",
        "meta_mean_motion": 14.81674474,
        "meta_eccentricity": 0.0001243,
        "meta_inclination": 97.8948,
        "meta_ra_of_asc_node": 64.0581,
        "meta_arg_of_pericenter": 98.3103,
        "meta_mean_anomaly": 261.8251,
        "meta_ephemeris_type": 0,
        "meta_classification_type": "U",
        "meta_norad_cat_id": 49070,
        "meta_element_set_no": 999,
        "meta_rev_at_epoch": 23449,
        "meta_bstar": 1.6136e-05,
        "meta_mean_motion_dot": 7.5e-07,
        "meta_mean_motion_ddot": 0,
        "tle_line1": "1 49070U 21073E   25351.69209844  .00000075  00000+0  16136-4 0  9993",
        "tle_line2": "2 49070  97.8948  64.0581 0001243  98.3103 261.8251 14.81674474234498"
      },
      "geometry": {
        "type": "Point",
        "coordinates": [
          57.156265479709944,
          41.72986342675019
        ]
      }
    },
    {
      "type": "Feature",
      "properties": {
        "norad_id": 49260,
        "name": "LANDSAT 9",
        "group": "resource",
        "lat": -36.60228529761857,
        "lon": 66.09368279336051,
        "alt_km": 709.3533196185226,
        "timestamp": "2025-12-17T21:39:45.366463+00:00",
        "meta_object_name": "LANDSAT 9",
        "meta_object_id": "2021-088A",
        "meta_epoch": "2025-12-17T15:14:23.900640",
        "meta_mean_motion": 14.57102986,
        "meta_eccentricity": 0.00011225,
        "meta_inclination": 98.209,
        "meta_ra_of_asc_node": 59.675,
        "meta_arg_of_pericenter": 90.2558,
        "meta_mean_anomaly": 269.8769,
        "meta_ephemeris_type": 0,
        "meta_classification_type": "U",
        "meta_norad_cat_id": 49260,
        "meta_element_set_no": 999,
        "meta_rev_at_epoch": 22456,
        "meta_bstar": 9.0036608e-05,
        "meta_mean_motion_dot": 3.6e-06,
        "meta_mean_motion_ddot": 0,
        "tle_line1": "1 49260U 21088A   25351.63499885  .00000360  00000+0  90037-4 0  9999",
        "tle_line2": "2 49260  98.2090  59.6750 0001122  90.2558 269.8769 14.57102986224567"
      },
      "geometry": {
        "type": "Point",
        "coordinates": [
          66.09368279336051,
          -36.60228529761857
        ]
      }
    },
    {
      "type": "Feature",
      "properties": {
        "norad_id": 51444,
        "name": "CSG-2",
        "group": "resource",
        "lat": 80.03526035562271,
        "lon": 121.11805622070774,
        "alt_km": 614.1168199136591,
        "timestamp": "2025-12-17T21:39:45.366473+00:00",
        "meta_object_name": "CSG-2",
        "meta_object_id": "2022-008A",
        "meta_epoch": "2025-12-17T14:48:16.506144",
        "meta_mean_motion": 14.82150687,
        "meta_eccentricity": 0.00014785,
        "meta_inclination": 97.8802,
        "meta_ra_of_asc_node": 172.8659,
        "meta_arg_of_pericenter": 84.4261,
        "meta_mean_anomaly": 275.7121,
        "meta_ephemeris_type": 0,
        "meta_classification_type": "U",
        "meta_norad_cat_id": 51444,
        "meta_element_set_no": 999,
        "meta_rev_at_epoch": 20969,
        "meta_bstar": 0.00010615834,
        "meta_mean_motion_dot": 7.93e-06,
        "meta_mean_motion_ddot": 0,
        "tle_line1": "1 51444U 22008A   25351.61685771  .00000793  00000+0  10616-3 0  9992",
        "tle_line2": "2 51444  97.8802 172.8659 0001478  84.4261 275.7121 14.82150687209690"
      },
      "geometry": {
        "type": "Point",
        "coordinates": [
          121.11805622070774,
          80.03526035562271
        ]
      }
    }
  ]
}